[{"OBJECT_NAME":"ONEWEB-0598","OBJECT_ID":"2023-004Q","EPOCH":"2026-01-22T01:14:48.247584","MEAN_MOTION":13.11418363,"ECCENTRICITY":0.00013566,"INCLINATION":87.8818,"RA_OF_ASC_NODE":50.1613,"ARG_OF_PERICENTER":109.342,"MEAN_ANOMALY":250.7855,"EPHEMERIS_TYPE":0,"CLASSIFICATION_TYPE":"U","NORAD_CAT_ID":55154,"ELEMENT_SET_NO":999,"REV_AT_EPOCH":14674,"BSTAR":0.0011374672,"MEAN_MOTION_DOT":4.16e-6,"MEAN_MOTION_DDOT":0},{"OBJECT_NAME":"ONEWEB-0599","OBJECT_ID":"2023-004R","EPOCH":"2026-01-22T07:16:52.699008","MEAN_MOTION":13.17651442,"ECCENTRICITY":0.00016146,"INCLINATION":87.9086,"RA_OF_ASC_NODE":34.8591,"ARG_OF_PERICENTER":90.9892,"MEAN_ANOMALY":269.1424,"EPHEMERIS_TYPE":0,"CLASSIFICATION_TYPE":"U","NORAD_CAT_ID":55155,"ELEMENT_SET_NO":999,"REV_AT_EPOCH":14827,"BSTAR":9.945545e-5,"MEAN_MOTION_DOT":5.1e-7,"MEAN_MOTION_DDOT":0},{"OBJECT_NAME":"ONEWEB-0614","OBJECT_ID":"2023-004S","EPOCH":"2026-01-22T01:07:28.928640","MEAN_MOTION":13.11418719,"ECCENTRICITY":0.00021729,"INCLINATION":87.8817,"RA_OF_ASC_NODE":50.171,"ARG_OF_PERICENTER":94.8071,"MEAN_ANOMALY":265.3305,"EPHEMERIS_TYPE":0,"CLASSIFICATION_TYPE":"U","NORAD_CAT_ID":55156,"ELEMENT_SET_NO":999,"REV_AT_EPOCH":14668,"BSTAR":0.000714058,"MEAN_MOTION_DOT":2.66e-6,"MEAN_MOTION_DDOT":0},{"OBJECT_NAME":"ONEWEB-0616","OBJECT_ID":"2023-004T","EPOCH":"2026-01-22T06:28:17.509440","MEAN_MOTION":13.17650946,"ECCENTRICITY":0.00013084,"INCLINATION":87.9094,"RA_OF_ASC_NODE":34.8616,"ARG_OF_PERICENTER":58.7669,"MEAN_ANOMALY":301.359,"EPHEMERIS_TYPE":0,"CLASSIFICATION_TYPE":"U","NORAD_CAT_ID":55157,"ELEMENT_SET_NO":999,"REV_AT_EPOCH":14848,"BSTAR":-8.9067895e-5,"MEAN_MOTION_DOT":-2.2e-7,"MEAN_MOTION_DDOT":0},{"OBJECT_NAME":"ONEWEB-0617","OBJECT_ID":"2023-004U","EPOCH":"2026-01-22T08:09:51.119136","MEAN_MOTION":13.1141778,"ECCENTRICITY":0.00021296,"INCLINATION":87.8825,"RA_OF_ASC_NODE":50.093,"ARG_OF_PERICENTER":101.5518,"MEAN_ANOMALY":258.585,"EPHEMERIS_TYPE":0,"CLASSIFICATION_TYPE":"U","NORAD_CAT_ID":55158,"ELEMENT_SET_NO":999,"REV_AT_EPOCH":14674,"BSTAR":-0.0010052638,"MEAN_MOTION_DOT":-3.44e-6,"MEAN_MOTION_DDOT":0},{"OBJECT_NAME":"ONEWEB-0618","OBJECT_ID":"2023-004V","EPOCH":"2026-01-22T00:37:39.255456","MEAN_MOTION":15.11373857,"ECCENTRICITY":0.00148558,"INCLINATION":86.9032,"RA_OF_ASC_NODE":236.912,"ARG_OF_PERICENTER":111.0555,"MEAN_ANOMALY":249.2274,"EPHEMERIS_TYPE":0,"CLASSIFICATION_TYPE":"U","NORAD_CAT_ID":55159,"ELEMENT_SET_NO":999,"REV_AT_EPOCH":16017,"BSTAR":0.00048414833,"MEAN_MOTION_DOT":8.219e-5,"MEAN_MOTION_DDOT":0},{"OBJECT_NAME":"ONEWEB-0619","OBJECT_ID":"2023-004W","EPOCH":"2026-01-22T07:14:28.150944","MEAN_MOTION":13.1764912,"ECCENTRICITY":0.00021249,"INCLINATION":87.9094,"RA_OF_ASC_NODE":34.8287,"ARG_OF_PERICENTER":80.6155,"MEAN_ANOMALY":279.5217,"EPHEMERIS_TYPE":0,"CLASSIFICATION_TYPE":"U","NORAD_CAT_ID":55160,"ELEMENT_SET_NO":999,"REV_AT_EPOCH":14838,"BSTAR":4.1745328e-5,"MEAN_MOTION_DOT":2.9e-7,"MEAN_MOTION_DDOT":0},{"OBJECT_NAME":"ONEWEB-0620","OBJECT_ID":"2023-004X","EPOCH":"2026-01-22T08:02:31.344000","MEAN_MOTION":13.11417657,"ECCENTRICITY":0.00018164,"INCLINATION":87.8816,"RA_OF_ASC_NODE":50.1124,"ARG_OF_PERICENTER":103.906,"MEAN_ANOMALY":256.227,"EPHEMERIS_TYPE":0,"CLASSIFICATION_TYPE":"U","NORAD_CAT_ID":55161,"ELEMENT_SET_NO":999,"REV_AT_EPOCH":14671,"BSTAR":-0.0014079048,"MEAN_MOTION_DOT":-4.86e-6,"MEAN_MOTION_DDOT":0},{"OBJECT_NAME":"ONEWEB-0621","OBJECT_ID":"2023-004Y","EPOCH":"2026-01-22T01:22:07.971744","MEAN_MOTION":13.11416017,"ECCENTRICITY":0.00020511,"INCLINATION":87.8829,"RA_OF_ASC_NODE":50.1431,"ARG_OF_PERICENTER":91.9776,"MEAN_ANOMALY":268.1586,"EPHEMERIS_TYPE":0,"CLASSIFICATION_TYPE":"U","NORAD_CAT_ID":55162,"ELEMENT_SET_NO":999,"REV_AT_EPOCH":14665,"BSTAR":0.0013250504,"MEAN_MOTION_DOT":4.82e-6,"MEAN_MOTION_DDOT":0},{"OBJECT_NAME":"ONEWEB-0622","OBJECT_ID":"2023-004Z","EPOCH":"2026-01-22T03:19:19.001568","MEAN_MOTION":13.11418644,"ECCENTRICITY":0.00025264,"INCLINATION":87.882,"RA_OF_ASC_NODE":50.1322,"ARG_OF_PERICENTER":104.7344,"MEAN_ANOMALY":255.4065,"EPHEMERIS_TYPE":0,"CLASSIFICATION_TYPE":"U","NORAD_CAT_ID":55163,"ELEMENT_SET_NO":999,"REV_AT_EPOCH":14665,"BSTAR":0.0017630948,"MEAN_MOTION_DOT":6.38e-6,"MEAN_MOTION_DDOT":0},{"OBJECT_NAME":"ONEWEB-0623","OBJECT_ID":"2023-004AA","EPOCH":"2026-01-22T01:39:08.269344","MEAN_MOTION":13.17650129,"ECCENTRICITY":0.00026118,"INCLINATION":87.9086,"RA_OF_ASC_NODE":34.9212,"ARG_OF_PERICENTER":90.3208,"MEAN_ANOMALY":269.8222,"EPHEMERIS_TYPE":0,"CLASSIFICATION_TYPE":"U","NORAD_CAT_ID":55164,"ELEMENT_SET_NO":999,"REV_AT_EPOCH":14834,"BSTAR":-6.4302115e-5,"MEAN_MOTION_DOT":-1.2e-7,"MEAN_MOTION_DDOT":0},{"OBJECT_NAME":"ONEWEB-0624","OBJECT_ID":"2023-004AB","EPOCH":"2026-01-22T00:37:01.669728","MEAN_MOTION":13.12924137,"ECCENTRICITY":0.00020739,"INCLINATION":87.8927,"RA_OF_ASC_NODE":19.6313,"ARG_OF_PERICENTER":89.3926,"MEAN_ANOMALY":270.7441,"EPHEMERIS_TYPE":0,"CLASSIFICATION_TYPE":"U","NORAD_CAT_ID":55165,"ELEMENT_SET_NO":999,"REV_AT_EPOCH":14889,"BSTAR":-0.00066027252,"MEAN_MOTION_DOT":-2.26e-6,"MEAN_MOTION_DDOT":0},{"OBJECT_NAME":"ONEWEB-0625","OBJECT_ID":"2023-004AC","EPOCH":"2026-01-22T06:52:36.325056","MEAN_MOTION":13.17648481,"ECCENTRICITY":0.00017141,"INCLINATION":87.9084,"RA_OF_ASC_NODE":34.8718,"ARG_OF_PERICENTER":85.5497,"MEAN_ANOMALY":274.5831,"EPHEMERIS_TYPE":0,"CLASSIFICATION_TYPE":"U","NORAD_CAT_ID":55166,"ELEMENT_SET_NO":999,"REV_AT_EPOCH":14836,"BSTAR":-7.5280268e-5,"MEAN_MOTION_DOT":-1.6e-7,"MEAN_MOTION_DDOT":0},{"OBJECT_NAME":"ONEWEB-0626","OBJECT_ID":"2023-004AD","EPOCH":"2026-01-22T06:38:01.008384","MEAN_MOTION":13.17650128,"ECCENTRICITY":0.00015712,"INCLINATION":87.9085,"RA_OF_ASC_NODE":34.8741,"ARG_OF_PERICENTER":105.3733,"MEAN_ANOMALY":254.7572,"EPHEMERIS_TYPE":0,"CLASSIFICATION_TYPE":"U","NORAD_CAT_ID":55167,"ELEMENT_SET_NO":999,"REV_AT_EPOCH":14836,"BSTAR":-1.4532685e-5,"MEAN_MOTION_DOT":7.0e-8,"MEAN_MOTION_DDOT":0},{"OBJECT_NAME":"ONEWEB-0627","OBJECT_ID":"2023-004AE","EPOCH":"2026-01-22T06:20:59.784576","MEAN_MOTION":13.17651185,"ECCENTRICITY":0.00023826,"INCLINATION":87.9082,"RA_OF_ASC_NODE":34.8766,"ARG_OF_PERICENTER":93.6321,"MEAN_ANOMALY":266.5083,"EPHEMERIS_TYPE":0,"CLASSIFICATION_TYPE":"U","NORAD_CAT_ID":55168,"ELEMENT_SET_NO":999,"REV_AT_EPOCH":14836,"BSTAR":1.3409975e-5,"MEAN_MOTION_DOT":1.8e-7,"MEAN_MOTION_DDOT":0},{"OBJECT_NAME":"ONEWEB-0628","OBJECT_ID":"2023-004AF","EPOCH":"2026-01-22T06:12:04.232448","MEAN_MOTION":13.12442695,"ECCENTRICITY":0.00025306,"INCLINATION":87.894,"RA_OF_ASC_NODE":19.6226,"ARG_OF_PERICENTER":83.5274,"MEAN_ANOMALY":276.6143,"EPHEMERIS_TYPE":0,"CLASSIFICATION_TYPE":"U","NORAD_CAT_ID":55169,"ELEMENT_SET_NO":999,"REV_AT_EPOCH":14889,"BSTAR":-0.00073049182,"MEAN_MOTION_DOT":-2.5e-6,"MEAN_MOTION_DDOT":0},{"OBJECT_NAME":"ONEWEB-0629","OBJECT_ID":"2023-004AG","EPOCH":"2026-01-22T02:07:03.645696","MEAN_MOTION":13.17650767,"ECCENTRICITY":0.00019949,"INCLINATION":87.9084,"RA_OF_ASC_NODE":34.9094,"ARG_OF_PERICENTER":82.4737,"MEAN_ANOMALY":277.6621,"EPHEMERIS_TYPE":0,"CLASSIFICATION_TYPE":"U","NORAD_CAT_ID":55170,"ELEMENT_SET_NO":999,"REV_AT_EPOCH":14834,"BSTAR":0.00011754521,"MEAN_MOTION_DOT":5.9e-7,"MEAN_MOTION_DDOT":0}]
