ONEWEB-0598             
1 55154U 23004Q   26022.05194731  .00000416  00000+0  11375-2 0  9990
2 55154  87.8818  50.1613 0001356 109.3420 250.7855 13.11418363146747
ONEWEB-0599             
1 55155U 23004R   26022.30338772  .00000051  00000+0  99455-4 0  9996
2 55155  87.9086  34.8591 0001614  90.9892 269.1424 13.17651442148274
ONEWEB-0614             
1 55156U 23004S   26022.04686260  .00000266  00000+0  71406-3 0  9999
2 55156  87.8817  50.1710 0002172  94.8071 265.3305 13.11418719146683
ONEWEB-0616             
1 55157U 23004T   26022.26964710 -.00000022  00000+0 -89068-4 0  9999
2 55157  87.9094  34.8616 0001308  58.7669 301.3590 13.17650946148481
ONEWEB-0617             
1 55158U 23004U   26022.34017499 -.00000344  00000+0 -10053-2 0  9995
2 55158  87.8825  50.0930 0002129 101.5518 258.5850 13.11417780146744
ONEWEB-0618             
1 55159U 23004V   26022.02614879  .00008219  00000+0  48415-3 0  9997
2 55159  86.9032 236.9120 0014855 111.0555 249.2274 15.11373857160175
ONEWEB-0619             
1 55160U 23004W   26022.30171471  .00000029  00000+0  41745-4 0  9997
2 55160  87.9094  34.8287 0002124  80.6155 279.5217 13.17649120148383
ONEWEB-0620             
1 55161U 23004X   26022.33508500 -.00000486  00000+0 -14079-2 0  9995
2 55161  87.8816  50.1124 0001816 103.9060 256.2270 13.11417657146715
ONEWEB-0621             
1 55162U 23004Y   26022.05703671  .00000482  00000+0  13251-2 0  9996
2 55162  87.8829  50.1431 0002051  91.9776 268.1586 13.11416017146657
ONEWEB-0622             
1 55163U 23004Z   26022.13841437  .00000638  00000+0  17631-2 0  9998
2 55163  87.8820  50.1322 0002526 104.7344 255.4065 13.11418644146658
ONEWEB-0623             
1 55164U 23004AA  26022.06884571 -.00000012  00000+0 -64302-4 0  9994
2 55164  87.9086  34.9212 0002611  90.3208 269.8222 13.17650129148340
ONEWEB-0624             
1 55165U 23004AB  26022.02571377 -.00000226  00000+0 -66027-3 0  9990
2 55165  87.8927  19.6313 0002073  89.3926 270.7441 13.12924137148895
ONEWEB-0625             
1 55166U 23004AC  26022.28653154 -.00000016  00000+0 -75280-4 0  9992
2 55166  87.9084  34.8718 0001714  85.5497 274.5831 13.17648481148368
ONEWEB-0626             
1 55167U 23004AD  26022.27640056  .00000007  00000+0 -14533-4 0  9992
2 55167  87.9085  34.8741 0001571 105.3733 254.7572 13.17650128148364
ONEWEB-0627             
1 55168U 23004AE  26022.26458084  .00000018  00000+0  13410-4 0  9994
2 55168  87.9082  34.8766 0002382  93.6321 266.5083 13.17651185148364
ONEWEB-0628             
1 55169U 23004AF  26022.25838232 -.00000250  00000+0 -73049-3 0  9994
2 55169  87.8940  19.6226 0002530  83.5274 276.6143 13.12442695148895
ONEWEB-0629             
1 55170U 23004AG  26022.08823664  .00000059  00000+0  11755-3 0  9991
2 55170  87.9084  34.9094 0001994  82.4737 277.6621 13.17650767148343
